248P/Gibbs,e,6.3515,207.8118,209.9518,5.983940,0.0673323,0.63933594,334.6238,09/03.0/2024,2000,g 14.0,4.0
# From MPEC 2022-YN2
249P/LINEAR,e,8.3854,239.0437,65.7460,2.764853,0.2143859,0.81935194,327.4789,09/03.0/2024,2000,g 15.5,4.0
# From MPC110497
250P/Larson,e,13.1573,73.2837,45.8207,3.778358,0.1341991,0.39880280,325.6458,09/03.0/2024,2000,g 14.5,4.0
# From MPEC 2024-PC5
251P/LINEAR,e,23.3870,219.3400,31.2081,3.512959,0.1496906,0.50434371,30.3546,09/03.0/2024,2000,g 16.5,2.0
# From MPEC 2021-S45
252P/LINEAR,e,10.4172,190.9063,343.3802,3.051231,0.1849232,0.67087221,212.8085,09/03.0/2024,2000,g 17.5,4.0
# From MPEC 2024-R10
253P/PANSTARRS,e,4.9442,146.8655,230.8147,3.462079,0.1530025,0.41457324,352.6591,09/03.0/2024,2000,g 14.5,4.0
# From MPEC 2024-EF7
254P/McNaught,e,32.5450,129.1851,219.7450,4.618982,0.0992852,0.31886264,142.4147,09/03.0/2024,2000,g 11.0,4.0
# From NK 2214
255P/Levy,e,13.4030,275.6366,186.0356,2.942419,0.1952752,0.71194044,141.8112,09/03.0/2024,2000,g  9.0,4.0
# From MPEC 2024-L77
256P/LINEAR,e,27.6242,81.3288,124.1150,4.636717,0.0987161,0.41786548,53.4073,09/03.0/2024,2000,g 14.0,2.0
# From MPEC 2023-A50
257P/Catalina,e,20.2185,207.7198,117.7699,3.766815,0.1348164,0.42906852,196.1140,09/03.0/2024,2000,g 11.5,4.0
# From MPEC 2021-U31
258P/PANSTARRS,e,6.7503,126.2332,25.5935,4.390353,0.1071408,0.20914248,164.8501,09/03.0/2024,2000,g 13.0,4.0
# From MPC106349
259P/Garradd,e,15.8985,51.3710,257.5269,2.728906,0.2186357,0.33878312,205.1481,09/03.0/2024,2000,g 15.5,4.0
# From MPEC 2022-O01
260P/McNaught,e,15.0469,349.3255,18.4817,3.623479,0.1428945,0.60899727,259.8532,09/03.0/2024,2000,g 13.5,4.0
# From MPEC 2021-J28
261P/Larson,e,6.0726,291.0562,67.3564,3.490214,0.1511562,0.42297421,287.3976,09/03.0/2024,2000,g 14.0,4.0
# From MPC 82322
262P/McNaught-Russell,e,29.2709,217.8886,171.0662,6.869479,0.0547417,0.81624966,234.4783,09/03.0/2024,2000,g 13.5,4.0
# From MPEC 2024-L77
263P/Gibbs,e,11.5253,105.5020,35.0251,3.041215,0.1858375,0.59381120,108.0317,09/03.0/2024,2000,g 18.0,4.0
# From MPC114608
264P/Larsen,e,25.3645,219.4272,341.3058,4.018622,0.1223456,0.34251831,247.0422,09/03.0/2024,2000,g 13.0,4.0
# From MPC 79870
265P/LINEAR,e,14.3495,342.9407,33.5351,4.259655,0.1121095,0.64713651,145.9529,09/03.0/2024,2000,g 14.5,4.0
# From MPEC 2021-F20
266P/Christensen,e,3.4276,4.9567,97.7293,3.529052,0.1486678,0.34074959,237.3063,09/03.0/2024,2000,g 14.7,4.0
# From MPC114608
267P/LONEOS,e,6.1428,228.5988,114.2383,3.209993,0.1713752,0.61435172,22.4805,09/03.0/2024,2000,g 19.5,4.0
# From MPC 92277
268P/Bernardi,e,15.6400,124.7157,0.0023,4.630138,0.0989266,0.47228903,349.5380,09/03.0/2024,2000,g 14.0,4.0
# From MPEC 2023-J29
269P/Jedicke,e,7.0846,241.7735,225.6785,7.060961,0.0525301,0.43310303,190.1502,09/03.0/2024,2000,g 10.0,4.0
# From MPC 88332
270P/Gehrels,e,2.9252,223.0382,209.8633,6.651635,0.0574528,0.47009808,235.1490,09/03.0/2024,2000,g  8.0,4.0
# From MPC 92277
271P/van Houten-Lemmon,e,6.8692,9.3109,36.5482,7.032506,0.0528493,0.39613155,214.4022,09/03.0/2024,2000,g 11.0,4.0
# From MPEC 2023-D41
272P/NEAT,e,18.0788,109.4419,27.8822,4.461864,0.1045754,0.45527067,81.4460,09/03.0/2024,2000,g 16.0,2.0
# From MPC 82723
273P/Pons-Gambart,e,136.4942,320.3982,20.1809,31.97697,0.0054506,0.97444575,0.0000,12/22.2927/2012,2000,g 11.5,4.0
# From MPEC 2024-GJ3
274P/Tombaugh-Tenagra,e,15.8206,81.3180,38.4756,4.378124,0.1075900,0.44005876,94.4881,09/03.0/2024,2000,g 13.0,4.0
# From MPC 81862
275P/Hermann,e,21.2564,348.6903,173.9110,5.791402,0.0707178,0.71349400,304.4691,09/03.0/2024,2000,g 17.0,4.0
# From MPEC 2024-R10
276P/Vorobjov,e,14.8071,211.3416,199.2794,5.344069,0.0797804,0.27046673,352.1086,09/03.0/2024,2000,g 11.5,4.0
# From MPEC 2021-F20
277P/LINEAR,e,16.7901,276.2647,152.4089,3.853566,0.1302896,0.50646872,174.8160,09/03.0/2024,2000,g 15.1,4.0
# From MPEC 2021-S45
278P/McNaught,e,6.6561,14.8238,237.8408,3.664199,0.1405191,0.44321411,203.4611,09/03.0/2024,2000,g 14.0,4.0
# From MPEC 2024-A43
279P/LaSagra,e,5.0503,346.1253,5.7160,3.570809,0.1460677,0.39931534,73.4693,09/03.0/2024,2000,g 14.0,4.0
# From MPEC 2023-J95
280P/Larsen,e,11.7742,131.3753,104.6950,4.526501,0.1023435,0.41682771,40.4734,09/03.0/2024,2000,g 12.5,4.0
# From MPEC 2023-D41
281P/MOSS,e,4.7176,87.1672,26.8450,4.883963,0.0913157,0.17375888,52.7837,09/03.0/2024,2000,g 11.0,4.0
# From MPC133426
282P/,e,5.8126,217.6119,9.1947,4.236489,0.1130303,0.18763293,118.1753,09/03.0/2024,2000,g 13.5,2.0
# From MPEC 2022-K19
283P/Spacewatch,e,14.4628,161.1207,22.1579,4.132888,0.1173069,0.48456625,128.0088,09/03.0/2024,2000,g 16.0,2.0
# From MPEC 2024-D33
284P/McNaught,e,11.8558,144.2684,202.4769,3.678007,0.1397286,0.37466834,151.8832,09/03.0/2024,2000,g 13.0,4.0
# From MPEC 2024-L77
285P/LINEAR,e,25.0364,185.5067,178.3905,4.505784,0.1030501,0.61832404,61.8216,09/03.0/2024,2000,g 15.0,4.0
# From MPEC 2024-LE0
286P/Christensen,e,17.1382,283.6017,24.5502,4.096092,0.1188911,0.42767813,100.4799,09/03.0/2024,2000,g 14.0,4.0
# From MPEC 2024-GJ3
287P/Christensen,e,16.3130,138.9704,189.5070,4.172677,0.1156330,0.27236207,48.9567,09/03.0/2024,2000,g 13.5,4.0
# From MPC133426
288P/,e,3.2383,83.1053,280.3044,3.049588,0.1850727,0.19997117,169.6236,09/03.0/2024,2000,g 16.0,2.0
# From MPEC 2024-O39
289P/Blanpain,e,5.9003,68.8919,9.8712,3.044021,0.1855806,0.68644602,318.5557,09/03.0/2024,2000,g 19.0,4.0
# From MPC 95214
290P/Jager,e,20.0483,302.6770,181.8298,6.215430,0.0636059,0.62799149,246.5612,09/03.0/2024,2000,g 10.5,4.0
# From MPEC 2024-L77
291P/NEAT,e,6.3098,237.6595,173.5263,4.533912,0.1020926,0.43407227,49.8173,09/03.0/2024,2000,g 13.0,4.0
# From MPEC 2022-K19
292P/Li,e,24.3191,90.8973,319.6341,6.097526,0.0654596,0.59001143,252.5064,09/03.0/2024,2000,g 12.5,4.0
# From MPEC 2022-L66
293P/Spacewatch,e,9.0615,78.3670,40.9528,3.638621,0.1420034,0.41924622,192.1288,09/03.0/2024,2000,g 14.5,4.0
# From MPEC 2020-SI8
294P/LINEAR,e,18.1539,311.3132,235.8528,3.194443,0.1726280,0.60054826,300.8373,09/03.0/2024,2000,g 15.5,4.0
# From MPEC 2022-K19
295P/LINEAR,e,21.0798,7.3955,72.9932,5.301288,0.0807480,0.61763046,304.4700,09/03.0/2024,2000,g 12.0,4.0
# From MPEC 2021-N06
296P/Garradd,e,25.3488,263.5190,349.9144,3.484242,0.1515450,0.48196445,218.9257,09/03.0/2024,2000,g 14.0,4.0
# From MPC102956
297P/Beshore,e,11.0026,92.7112,141.2811,3.531707,0.1485002,0.30322456,195.0622,09/03.0/2024,2000,g 15.0,4.0
# From MPC114609
298P/Christensen,e,7.8711,52.7977,100.5965,3.588898,0.1449648,0.38659258,211.3953,09/03.0/2024,2000,g 15.0,4.0
# From MPEC 2024-R10
299P/Catalina-PANSTARRS,e,10.4685,271.5807,323.6694,4.389508,0.1071717,0.28094083,13.4766,09/03.0/2024,2000,g 11.5,4.0
# From MPEC 2023-VM5
300P/Catalina,e,5.6761,95.6191,222.9074,2.697089,0.2225160,0.69183254,113.6870,09/03.0/2024,2000,g 16.0,4.0
# From MPC 89014
301P/LINEAR-NEAT,e,10.3298,351.0690,193.4725,5.748500,0.0715109,0.58592709,263.2476,09/03.0/2024,2000,g 13.0,4.0
# From MPEC 2024-R10
302P/Lemmon-PANSTARRS,e,6.0351,121.7142,208.6239,4.269292,0.1117301,0.22969771,339.0646,09/03.0/2024,2000,g 12.5,4.0
# From MPC 92278
303P/NEAT,e,7.0164,347.9657,357.0173,5.041047,0.0870809,0.51047148,313.4243,09/03.0/2024,2000,g 13.5,4.0
# From MPEC 2022-K19
304P/Ory,e,2.6061,58.9411,335.2677,3.150172,0.1762799,0.60095688,261.0873,09/03.0/2024,2000,g 16.5,4.0
# From MPEC 2024-R10
305P/Skiff,e,11.6713,240.1066,147.4246,4.635147,0.0987663,0.69394473,352.5754,09/03.0/2024,2000,g 18.0,4.0
# From MPC 92278
306P/LINEAR,e,8.3034,341.3629,0.8940,3.124567,0.1784512,0.59267036,300.6419,09/03.0/2024,2000,g 19.0,4.0
# From MPC 92278
307P/LINEAR,e,4.4358,158.1474,222.2232,5.787942,0.0707812,0.67533096,250.2459,09/03.0/2024,2000,g 15.0,4.0
# From MPEC 2022-C56
308P/Lagerkvist-Carsenty,e,4.8532,63.0967,333.7296,6.599938,0.0581292,0.36456057,197.5670,09/03.0/2024,2000,g 13.0,2.0
# From MPEC 2024-BE0
309P/LINEAR,e,17.0214,10.1370,49.9069,4.374841,0.1077112,0.61833994,17.0211,09/03.0/2024,2000,g 15.0,4.0
# From MPEC 2024-LE0
310P/Hill,e,13.1196,8.8873,31.5380,4.182656,0.1152195,0.42234019,36.3734,09/03.0/2024,2000,g 13.5,4.0
# From MPEC 2024-A43
311P/PANSTARRS,e,4.9713,279.1721,144.2126,2.188260,0.3044779,0.11564119,74.6664,09/03.0/2024,2000,g 17.0,4.0
# From MPEC 2024-NE4
312P/NEAT,e,19.7497,144.6511,207.7080,3.471540,0.1523775,0.42698535,219.3141,09/03.0/2024,2000,g 16.0,4.0
# From MPEC 2024-N80
313P/Gibbs,e,10.9802,105.9267,254.9574,3.163998,0.1751256,0.23464840,280.2130,09/03.0/2024,2000,g 15.0,4.0
# From MPC105243
314P/Montani,e,3.9914,267.6197,213.8464,7.250729,0.0504814,0.41812534,145.5777,09/03.0/2024,2000,g  9.5,4.0
# From MPEC 2023-J29
315P/LONEOS,e,17.7325,68.6737,65.8401,4.938057,0.0898193,0.52175785,254.9342,09/03.0/2024,2000,g 11.0,4.0
# From MPEC 2024-NE4
316P/LONEOS-Christensen,e,9.8884,245.9345,188.4331,4.425872,0.1058536,0.15944661,355.5714,09/03.0/2024,2000,g 13.5,4.0
# From MPEC 2020-C98
317P/WISE,e,11.9727,275.4685,334.8499,2.960466,0.1934924,0.57176681,278.1679,09/03.0/2024,2000,g 17.5,4.0
# From MPC102103
318P/McNaught-Hartley,e,17.8720,35.5749,313.3268,7.511869,0.0478721,0.67392693,154.9268,09/03.0/2024,2000,g  8.5,6.0
# From MPC 97499
319P/Catalina-McNaught,e,15.0940,111.3455,203.6450,3.563243,0.1465331,0.66627634,129.9775,09/03.0/2024,2000,g 15.0,4.0
# From MPC 96281
320P/McNaught,e,4.9028,295.9400,0.7691,3.095373,0.1809817,0.68479408,240.0090,09/03.0/2024,2000,g 20.5,4.0
# From MPC105243
321P/SOHO,e,20.0698,165.0179,172.7472,2.422229,0.2614455,0.98103591,0.0000,10/26.5946/2023,2000,g 20.0,4.0
# From MPC102103
322P/SOHO,e,11.4633,351.4501,56.9691,2.508407,0.2480888,0.97997311,0.0000,08/21.1099/2023,2000,g 19.0,4.0
# From MPEC 2023-XP6
323P/SOHO,e,5.3273,324.2806,353.1253,2.583785,0.2373118,0.98461318,0.0000,03/14.2979/2025,2000,g 20.0,4.0
# From MPEC 2024-F21
323P-B/SOHO,e,5.4605,323.4618,353.9680,2.889234,0.2006920,0.98611874,0.0000,12/16.2926/2025,2000,g 26.0,4.0
# From MPEC 2024-F21
323P-C/SOHO,e,5.3404,324.1990,353.2069,2.610728,0.2336478,0.98476191,0.0000,04/07.1059/2025,2000,g 27.0,4.0
# From MPEC 2021-W31
